#aV2007  2  7  0  0   .00000000      96 DD+AD WGS84 FIT  NGA
## 1413 259200.00000000   900.00000000 54138  .0000000000000
+   30     1  2  3  4  5  6  7  8  9 10 11 12 13 14 16 17 18
+         19 20 21 22 23 24 25 26 27 28 29 30 31  0  0  0  0
+          0  0  0  0  0  0  0  0  0  0  0  0  0  0  0  0  0
+          0  0  0  0  0  0  0  0  0  0  0  0  0  0  0  0  0
+          0  0  0  0  0  0  0  0  0  0  0  0  0  0  0  0  0
++         0  0  0  0  0  0  0  0  0  0  0  0  0  0  0  0  0
++         0  0  0  0  0  0  0  0  0  0  0  0  0  0  0  0  0
++         0  0  0  0  0  0  0  0  0  0  0  0  0  0  0  0  0
++         0  0  0  0  0  0  0  0  0  0  0  0  0  0  0  0  0
++         0  0  0  0  0  0  0  0  0  0  0  0  0  0  0  0  0
%c cc cc ccc ccc cccc cccc cccc cccc ccccc ccccc ccccc ccccc
%c cc cc ccc ccc cccc cccc cccc cccc ccccc ccccc ccccc ccccc
%f  0.0000000  0.000000000  0.00000000000  0.000000000000000
%f  0.0000000  0.000000000  0.00000000000  0.000000000000000
%i    0    0    0    0      0      0      0      0         0
%i    0    0    0    0      0      0      0      0         0
/*      NGA, ST. LOUIS,MO.                                  
/*   EPHEMERIS COMPUTED FROM  3 DAYS OF DATA                
/* CCCCCCCCCCCCCCCCCCCCCCCCCCCCCCCCCCCCCCCCCCCCCCCCCCCCCCCCC
/* CCCCCCCCCCCCCCCCCCCCCCCCCCCCCCCCCCCCCCCCCCCCCCCCCCCCCCCCC
*  2007  2  7  0 45   .00000000                                                 
P  1 -20824.089219 -13314.182227  -9596.127331    106.212177                    
V  1  -7158.318250 -10310.412971  29146.811382       .023791                    
P  2  15096.609479   4024.505229 -21714.756353     80.107418                    
V  2  -6683.015506  26230.823021    -34.878846       .033606                    
P  3 -22898.181976  -8077.321916  10936.066323      9.771654                    
V  3  -8960.860357 -11392.172758 -26352.997490       .059098                    
P  4   8443.796049  17626.177730 -17882.218095      2.478418                    
V  4  -8073.380065  21376.687957  17680.650676       .021592                    
P  5  20125.445779 -14623.513159  -9322.838787     30.413584                    
V  5  11995.386997   -973.514247  28266.281293       .081549                    
P  6   2301.453423 -17588.488842 -19566.752215     10.175764                    
V  6  19654.975086  16104.416363 -12100.943585       .274681                    
P  7  -1427.268366 -19020.923402 -18113.404870    423.749920                    
V  7  19232.307535  14169.925285 -16179.665714      -.118843                    
P  8    369.729692  23871.125339  11043.125750    -95.828297                    
V  8  -6523.055177  12978.218467 -27961.923550      -.013412                    
P  9  14310.198843 -15719.902475  15194.528400     56.480147                    
V  9  -2251.551060  20431.300392  22640.951301       .017484                    
P 10  25565.053907   -766.175259  -7873.179888     97.048701                    
V 10  -8976.243129   4332.175252 -29659.501270       .004937                    
P 11 -13199.413291  17879.091443  14237.632747      6.327721                    
V 11  -1962.264710 -18854.657982  21992.874833       .013579                    
P 12  22051.632875 -12110.425643  -8342.925397    -53.514818                    
V 12  11067.469153   -308.545568  29365.398622       .042066                    
P 13    492.169732  18589.656684 -19073.526238    140.846825                    
V 13 -17072.711826 -16792.946834 -16842.261172       .040631                    
P 14 -15335.623665 -21024.336263   5579.278053      7.311955                    
V 14   6151.984317   3699.842098  31260.530285       .013188                    
P 16 -22798.274339  -3561.688633 -13184.498511    119.848522                    
V 16  15756.898318  -6258.446291 -25267.534854       .036659                    
P 17  15293.985070  21014.269516   5764.571036     79.672310                    
V 17  -7039.083512  -3284.912107  30525.501192      -.013724                    
P 18   4147.685762 -16053.564605  20815.639592   -253.795436                    
V 18  25787.982707  -4854.176523  -9255.536908       .001145                    
P 19 -18529.344505   -563.470004  19151.993644      2.043839                    
V 19 -15020.470971 -18886.708216 -15066.925815       .042033                    
P 20 -20410.879333  13470.234095 -10402.133310    -22.256182                    
V 20 -13325.353293   1020.890146  27767.288260      -.001411                    
P 21   4094.668301 -25531.196519   4675.369675     70.605908                    
V 21   5398.909104  -4573.659954 -30885.178254       .010303                    
P 22  -9217.503761 -13387.281617  21166.042881    166.135355                    
V 22  25774.184260  -6365.888394   7233.839899       .022262                    
P 23 -10111.337648  11158.644468 -21954.329836    148.930766                    
V 23 -19754.543296 -19363.265369   -933.043055       .015958                    
P 24  15443.644216 -16889.618907 -13574.642089     75.213223                    
V 24  -3272.924513  17244.661078 -24533.844099       .032165                    
P 25 -14298.667685  -5489.551560 -21312.758379    356.388271                    
V 25   4988.873391 -27547.737522   3830.282399      -.154013                    
P 26  19064.611690   2944.827239  18097.389732    -30.916349                    
V 26  15567.235284  17694.169529 -18294.045444      -.182818                    
P 27  -3524.448076  26119.376852   2351.042029     92.747160                    
V 27  -3345.249183   1613.382678 -31778.465638       .021859                    
P 28   5206.383995  14497.099718  21968.069711      7.910847                    
V 28 -26320.553432   6540.261295   1602.240781      -.009027                    
P 29  20845.592139   5912.184465  15819.841107    341.721484                    
V 29  13121.084050  14444.824897 -22676.844493       .116970                    
P 30  11863.291489 -16675.971901 -17173.378010     24.676051                    
V 30  20936.926960  -4454.319991  19239.266953       .010810                    
P 31  -9745.337534 -15469.629983 -19044.603646      5.481901                    
V 31   7551.774011 -23486.928299  15107.733069       .041831                    
EOF
